[Satellite]
VERSION=1.1
NAME=LAOSAT 1
NICKNAME=LAOSAT 1
TLE1=1 41034U 15067A   17185.85689492 -.00000348  00000-0  00000-0 0  9990
TLE2=2 41034   0.0380 149.6268 0001675 359.3255 211.0498  1.00275750  6066
